H1 CPF  1  DGF 2022 09 04 11  7471 larets     NONE      
H2   304206 5557    27944 2022 09 04 00 00 00 2022 09 11 00 00 00    30 1 1  0 0 0
H5  0.0650
H9
10 0 59832      0.000000  0      -5319083.889      -2757185.880      -3764677.402
10 0 59832     30.000000  0      -5235039.903      -2656369.614      -3950495.202
10 0 59832     60.000000  0      -5145278.279      -2553258.636      -4132305.471
10 0 59832     90.000000  0      -5049880.753      -2447982.162      -4309924.661
10 0 59832    120.000000  0      -4948935.252      -2340671.168      -4483173.539
10 0 59832    150.000000  0      -4842535.807      -2231458.230      -4651877.365
10 0 59832    180.000000  0      -4730782.461      -2120477.361      -4815866.057
10 0 59832    210.000000  0      -4613781.166      -2007863.848      -4974974.365
10 0 59832    240.000000  0      -4491643.676      -1893754.091      -5129042.020
10 0 59832    270.000000  0      -4364487.438      -1778285.436      -5277913.897
10 0 59832    300.000000  0      -4232435.472      -1661596.015      -5421440.155
10 0 59832    330.000000  0      -4095616.243      -1543824.582      -5559476.383
10 0 59832    360.000000  0      -3954163.540      -1425110.349      -5691883.734
10 0 59832    390.000000  0      -3808216.335      -1305592.830      -5818529.058
10 0 59832    420.000000  0      -3657918.645      -1185411.672      -5939285.023
10 0 59832    450.000000  0      -3503419.389      -1064706.501      -6054030.240
10 0 59832    480.000000  0      -3344872.238       -943616.760      -6162649.370
10 0 59832    510.000000  0      -3182435.458       -822281.552      -6265033.235
10 0 59832    540.000000  0      -3016271.756       -700839.484      -6361078.918
10 0 59832    570.000000  0      -2846548.111       -579428.514      -6450689.856
10 0 59832    600.000000  0      -2673435.612       -458185.797      -6533775.936
10 0 59832    630.000000  0      -2497109.280       -337247.534      -6610253.570
10 0 59832    660.000000  0      -2317747.894       -216748.824      -6680045.775
10 0 59832    690.000000  0      -2135533.810        -96823.518      -6743082.238
10 0 59832    720.000000  0      -1950652.785         22395.926      -6799299.382
10 0 59832    750.000000  0      -1763293.789        140778.577      -6848640.423
10 0 59832    780.000000  0      -1573648.819        258195.180      -6891055.427
10 0 59832    810.000000  0      -1381912.709        374518.287      -6926501.357
10 0 59832    840.000000  0      -1188282.931        489622.396      -6954942.117
10 0 59832    870.000000  0       -992959.397        603384.084      -6976348.582
10 0 59832    900.000000  0       -796144.262        715682.137      -6990698.628
10 0 59832    930.000000  0       -598041.714        826397.672      -6997977.151
10 0 59832    960.000000  0       -398857.779        935414.262      -6998176.082
10 0 59832    990.000000  0       -198800.106       1042618.054      -6991294.398
10 0 59832   1020.000000  0          1922.232       1147897.879      -6977338.134
10 0 59832   1050.000000  0        203098.955       1251145.371      -6956320.381
10 0 59832   1080.000000  0        404518.791       1352255.076      -6928261.287
10 0 59832   1110.000000  0        605969.700       1451124.562      -6893188.043
10 0 59832   1140.000000  0        807239.091       1547654.523      -6851134.857
10 0 59832   1170.000000  0       1008114.045       1641748.881      -6802142.925
10 0 59832   1200.000000  0       1208381.533       1733314.875      -6746260.394
10 0 59832   1230.000000  0       1407828.631       1822263.156      -6683542.322
10 0 59832   1260.000000  0       1606242.745       1908507.874      -6614050.640
10 0 59832   1290.000000  0       1803411.840       1991966.763      -6537854.102
10 0 59832   1320.000000  0       1999124.662       2072561.223      -6455028.220
10 0 59832   1350.000000  0       2193170.968       2150216.394      -6365655.201
10 0 59832   1380.000000  0       2385341.747       2224861.228      -6269823.867
10 0 59832   1410.000000  0       2575429.440       2296428.552      -6167629.580
10 0 59832   1440.000000  0       2763228.163       2364855.132      -6059174.157
10 0 59832   1470.000000  0       2948533.929       2430081.732      -5944565.783
10 0 59832   1500.000000  0       3131144.871       2492053.168      -5823918.914
10 0 59832   1530.000000  0       3310861.461       2550718.353      -5697354.177
10 0 59832   1560.000000  0       3487486.739       2606030.348      -5564998.262
10 0 59832   1590.000000  0       3660826.527       2657946.401      -5426983.805
10 0 59832   1620.000000  0       3830689.651       2706427.981      -5283449.264
10 0 59832   1650.000000  0       3996888.158       2751440.810      -5134538.792
10 0 59832   1680.000000  0       4159237.525       2792954.889      -4980402.099
10 0 59832   1710.000000  0       4317556.876       2830944.517      -4821194.314
10 0 59832   1740.000000  0       4471669.191       2865388.307      -4657075.836
10 0 59832   1770.000000  0       4621401.509       2896269.192      -4488212.176
10 0 59832   1800.000000  0       4766585.131       2923574.438      -4314773.799
10 0 59832   1830.000000  0       4907055.813       2947295.637      -4136935.957
10 0 59832   1860.000000  0       5042653.966       2967428.705      -3954878.520
10 0 59832   1890.000000  0       5173224.841       2983973.869      -3768785.798
10 0 59832   1920.000000  0       5298618.716       2996935.656      -3578846.363
10 0 59832   1950.000000  0       5418691.075       3006322.866      -3385252.862
10 0 59832   1980.000000  0       5533302.790       3012148.559      -3188201.830
10 0 59832   2010.000000  0       5642320.296       3014430.018      -2987893.490
10 0 59832   2040.000000  0       5745615.761       3013188.716      -2784531.543
10 0 59832   2070.000000  0       5843067.241       3008450.271      -2578322.960
10 0 59832   2100.000000  0       5934558.831       3000244.400      -2369477.770
10 0 59832   2130.000000  0       6019980.814       2988604.862      -2158208.844
10 0 59832   2160.000000  0       6099229.798       2973569.409      -1944731.677
10 0 59832   2190.000000  0       6172208.852       2955179.715      -1729264.165
10 0 59832   2220.000000  0       6238827.632       2933481.319      -1512026.377
10 0 59832   2250.000000  0       6299002.500       2908523.546      -1293240.329
10 0 59832   2280.000000  0       6352656.640       2880359.436      -1073129.748
10 0 59832   2310.000000  0       6399720.162       2849045.662       -851919.836
10 0 59832   2340.000000  0       6440130.195       2814642.443       -629837.028
10 0 59832   2370.000000  0       6473830.979       2777213.452       -407108.755
10 0 59832   2400.000000  0       6500773.936       2736825.718       -183963.195
10 0 59832   2430.000000  0       6520917.740       2693549.527         39370.962
10 0 59832   2460.000000  0       6534228.379       2647458.317        262664.756
10 0 59832   2490.000000  0       6540679.204       2598628.572        485689.201
10 0 59832   2520.000000  0       6540250.983       2547139.715        708215.520
10 0 59832   2550.000000  0       6532931.933       2493073.994        930015.395
10 0 59832   2580.000000  0       6518717.753       2436516.370       1150861.211
10 0 59832   2610.000000  0       6497611.642       2377554.391       1370526.302
10 0 59832   2640.000000  0       6469624.309       2316278.073       1588785.193
10 0 59832   2670.000000  0       6434773.968       2252779.769       1805413.845
10 0 59832   2700.000000  0       6393086.335       2187154.039       2020189.895
10 0 59832   2730.000000  0       6344594.600       2119497.517       2232892.892
10 0 59832   2760.000000  0       6289339.405       2049908.775       2443304.532
10 0 59832   2790.000000  0       6227368.803       1978488.189       2651208.889
10 0 59832   2820.000000  0       6158738.217       1905337.806       2856392.641
10 0 59832   2850.000000  0       6083510.387       1830561.196       3058645.304
10 0 59832   2880.000000  0       6001755.306       1754263.321       3257759.455
10 0 59832   2910.000000  0       5913550.142       1676550.380       3453530.947
10 0 59832   2940.000000  0       5818979.165       1597529.676       3645759.130
10 0 59832   2970.000000  0       5718133.648       1517309.461       3834247.056
10 0 59832   3000.000000  0       5611111.773       1435998.801       4018801.685
10 0 59832   3030.000000  0       5498018.527       1353707.424       4199234.081
10 0 59832   3060.000000  0       5378965.585       1270545.582       4375359.607
10 0 59832   3090.000000  0       5254071.203       1186623.909       4546998.115
10 0 59832   3120.000000  0       5123460.085       1102053.271       4713974.131
10 0 59832   3150.000000  0       4987263.256       1016944.624       4876117.044
10 0 59832   3180.000000  0       4845617.913        931408.872       5033261.274
10 0 59832   3210.000000  0       4698667.275        845556.718       5185246.446
10 0 59832   3240.000000  0       4546560.433        759498.530       5331917.548
10 0 59832   3270.000000  0       4389452.180        673344.194       5473125.090
10 0 59832   3300.000000  0       4227502.850        587202.982       5608725.253
10 0 59832   3330.000000  0       4060878.135        501183.409       5738580.031
10 0 59832   3360.000000  0       3889748.906        415393.102       5862557.362
10 0 59832   3390.000000  0       3714291.031        329938.669       5980531.254
10 0 59832   3420.000000  0       3534685.189        244925.572       6092381.906
10 0 59832   3450.000000  0       3351116.675        160457.994       6197995.830
10 0 59832   3480.000000  0       3163775.209         76638.721       6297265.957
10 0 59832   3510.000000  0       2972854.724         -6430.989       6390091.742
10 0 59832   3540.000000  0       2778553.166        -88651.522       6476379.262
10 0 59832   3570.000000  0       2581072.281       -169925.026       6556041.303
99
